{
"type": "FeatureCollection",
"name": "Layer_Circle",
"crs": { "type": "name", "properties": { "name": "urn:ogc:def:crs:OGC:1.3:CRS84" } },
"xy_coordinate_resolution": 1e-15,
"features": [
{ "type": "Feature", "properties": { "fid": 8, "Layer": "Circle", "PaperSpace": null, "SubClasses": "AcDbEntity:AcDbPolyline", "Linetype": null, "EntityHandle": "88", "Text": null }, "geometry": { "type": "LineString", "coordinates": [ [ -0.217012273075923, 51.513910999117329 ], [ -0.211399505565407, 51.517403462884928 ], [ -0.209528583061904, 51.518567557967721 ], [ -0.207657660558399, 51.519731623297787 ], [ -0.205786738054894, 51.520895658875396 ], [ -0.205163097220393, 51.52128366412299 ], [ -0.200797839888082, 51.521283521939104 ], [ -0.188949284271811, 51.521283136011427 ], [ -0.182713535991774, 51.5174025247196 ], [ -0.177100768637382, 51.520894720684872 ], [ -0.173359315464502, 51.518566376035665 ], [ -0.172112164406874, 51.517790234700293 ], [ -0.17024124195541, 51.518954319865387 ], [ -0.171488393013037, 51.519730441363556 ], [ -0.167122907292955, 51.522446478091808 ], [ -0.164628605177701, 51.520894314441755 ], [ -0.162134041909083, 51.522446315600099 ], [ -0.156521274554691, 51.525938124820698 ], [ -0.152156245852996, 51.523222011989041 ], [ -0.15090909479537, 51.522445949993745 ], [ -0.147167445757466, 51.522445828124958 ], [ -0.144673013065529, 51.522445746879107 ], [ -0.14217844979691, 51.523997695164745 ], [ -0.137812964076829, 51.526713477395027 ], [ -0.130329666001018, 51.526713233680304 ], [ -0.128458743549554, 51.527877090771831 ], [ -0.125340994703172, 51.525936725534507 ], [ -0.118480952375324, 51.530204128868974 ], [ -0.103532454213654, 51.520886924625451 ], [ -0.094161017084691, 51.520891687044703 ], [ -0.092290145347343, 51.519727865452708 ], [ -0.089795582472092, 51.521279906118068 ], [ -0.089171973819009, 51.521279886093993 ], [ -0.081689067265107, 51.516623117014213 ], [ -0.076700462895839, 51.513518339767167 ], [ -0.07670049548797, 51.513130248079314 ], [ -0.078571418043515, 51.511966013996471 ], [ -0.078571581264373, 51.51002545620652 ], [ -0.089796528690313, 51.510025821912585 ], [ -0.092914406421106, 51.511966481267656 ], [ -0.102268529276056, 51.511966786009737 ], [ -0.113493476701996, 51.511967151700226 ], [ -0.117858962543508, 51.509250489938609 ], [ -0.117859061462491, 51.508086087326227 ], [ -0.115988342875088, 51.506921607467014 ], [ -0.122224751046635, 51.503040182793853 ], [ -0.120354024460195, 51.501875568996212 ], [ -0.124719510180278, 51.499158305562233 ], [ -0.127837388148523, 51.501099434175231 ], [ -0.130331813914171, 51.50109951105523 ], [ -0.135944579388224, 51.497605798560812 ], [ -0.135944709964909, 51.496052869629445 ], [ -0.137191926345569, 51.496052910275907 ], [ -0.141556955168678, 51.49877064343648 ], [ -0.145922441010191, 51.496053194801192 ], [ -0.152169430643398, 51.492171505922876 ], [ -0.165254621352137, 51.492171271096517 ], [ -0.16774892353677, 51.493724413565921 ], [ -0.184586344675682, 51.493724962321274 ], [ -0.190198524591109, 51.497219339364328 ], [ -0.190198426658792, 51.498384008864065 ], [ -0.190198361370251, 51.499160442584831 ], [ -0.192692663554885, 51.500713346924776 ], [ -0.192692271824826, 51.505371498643598 ], [ -0.194563005315249, 51.506536019697656 ], [ -0.190821160412321, 51.508864735511779 ], [ -0.190821127768151, 51.509252863560008 ], [ -0.190821022879606, 51.510417231406755 ], [ -0.187092018928052, 51.512729285451783 ], [ -0.185208255369091, 51.513909963038486 ], [ -0.183960973700089, 51.514686089257225 ], [ -0.181466548155, 51.514686004338373 ], [ -0.177725094982121, 51.512357342279124 ], [ -0.170241405176264, 51.517014059824746 ], [ -0.170864980705079, 51.517402138759046 ], [ -0.167758934202787, 51.519365625927442 ] ] } }
]
}
