{
"type": "FeatureCollection",
"name": "Layer_Jubilee",
"crs": { "type": "name", "properties": { "name": "urn:ogc:def:crs:OGC:1.3:CRS84" } },
"xy_coordinate_resolution": 1e-15,
"features": [
{ "type": "Feature", "properties": { "fid": 12, "Layer": "Jubilee", "PaperSpace": null, "SubClasses": "AcDbEntity:AcDbPolyline", "Linetype": null, "EntityHandle": "8F", "Text": null }, "geometry": { "type": "LineString", "coordinates": [ [ -0.286226024859044, 51.594176380442654 ], [ -0.278743118305143, 51.589527068979571 ], [ -0.278743379458515, 51.586427425897 ], [ -0.278743575323544, 51.584102554801284 ], [ -0.278745370752979, 51.562785692930156 ], [ -0.275003917476028, 51.560459490535195 ], [ -0.265026708737493, 51.55425570238706 ], [ -0.238835164743633, 51.554254849901582 ], [ -0.238835556473691, 51.549601696957794 ], [ -0.216385661621811, 51.549600966181188 ], [ -0.21264420834486, 51.547274089380508 ], [ -0.208278949451665, 51.547273947277745 ], [ -0.199548436347928, 51.547273663072346 ], [ -0.197054134163295, 51.545722345741837 ], [ -0.193936093211645, 51.545722244236437 ], [ -0.190817889039137, 51.547661179637252 ], [ -0.188946966535632, 51.5488245012167 ], [ -0.181463668251672, 51.548824257620332 ], [ -0.175229632321416, 51.544953708346078 ], [ -0.175198689049534, 51.536415477009669 ], [ -0.159015699405911, 51.525938210031519 ], [ -0.159015862626769, 51.523998247472981 ], [ -0.160886792918945, 51.522834287313977 ], [ -0.130955167535901, 51.504204990344391 ], [ -0.128460865420647, 51.502652205024816 ], [ -0.127837257247663, 51.502652184704537 ], [ -0.124719053161889, 51.504592954893226 ], [ -0.123471895534168, 51.503816577270157 ], [ -0.121601077585311, 51.503816514498112 ], [ -0.119730361389727, 51.502651927009509 ], [ -0.118483127862781, 51.502651884126422 ], [ -0.11287036729851, 51.506145206750936 ], [ -0.107906196618337, 51.503044054931827 ], [ -0.106010840616539, 51.504204177560425 ], [ -0.10289280384985, 51.504204075962562 ], [ -0.09790392482746, 51.50420391340532 ], [ -0.096033002033522, 51.505368345785165 ], [ -0.086055281148537, 51.505368020680201 ], [ -0.06360599666577, 51.497991665131842 ], [ -0.051757440945426, 51.497991278974411 ], [ -0.043650681050841, 51.497991014820769 ], [ -0.033048819508486, 51.50420180354034 ], [ -0.02057650927829, 51.50420139717594 ] ] } }
]
}
