{
"type": "FeatureCollection",
"name": "Layer_Victoria",
"crs": { "type": "name", "properties": { "name": "urn:ogc:def:crs:OGC:1.3:CRS84" } },
"xy_coordinate_resolution": 1e-15,
"features": [
{ "type": "Feature", "properties": { "fid": 5, "Layer": "Victoria", "PaperSpace": null, "SubClasses": "AcDbEntity:AcDbPolyline", "Linetype": null, "EntityHandle": "82", "Text": null }, "geometry": { "type": "LineString", "coordinates": [ [ -0.106005738810706, 51.56471838151424 ], [ -0.106006391694137, 51.556964646256986 ], [ -0.10600645698248, 51.556189200018764 ], [ -0.106006685491681, 51.553475034070694 ], [ -0.103512383307047, 51.551923928191393 ], [ -0.103475302815777, 51.541840811204032 ], [ -0.117218242989522, 51.532905574012574 ], [ -0.120351714166927, 51.530949644269825 ], [ -0.124717221756026, 51.533695729026121 ], [ -0.129705731386329, 51.53059282439331 ], [ -0.130952947732297, 51.530592865008977 ], [ -0.135318433452378, 51.527877314171285 ], [ -0.135318857826598, 51.522833454551041 ], [ -0.139060700311981, 51.520505454273987 ], [ -0.139684341561343, 51.520117442137952 ], [ -0.140307982150154, 51.519729427107087 ], [ -0.142178906815299, 51.518565360375931 ], [ -0.136566727055979, 51.515072620131306 ], [ -0.139685066575088, 51.513132212032019 ], [ -0.13906157083132, 51.512743797095013 ], [ -0.139062133052073, 51.510803272503452 ], [ -0.144674277948556, 51.507310690160878 ], [ -0.144674310592728, 51.506922545556648 ], [ -0.140309281769617, 51.504205298506804 ], [ -0.140309608211332, 51.500323439129971 ], [ -0.141556889880337, 51.499547068217979 ], [ -0.142868580436787, 51.49873330379873 ], [ -0.147169657390849, 51.496053235447661 ], [ -0.130333132819933, 51.485569041910871 ], [ -0.124097035741272, 51.485568829180927 ], [ -0.122226211170282, 51.485568768197197 ], [ -0.122227353768327, 51.47197525767951 ], [ -0.114744414518213, 51.467701930765905 ], [ -0.114744838892443, 51.462651407676539 ] ] } }
]
}
