{
"type": "FeatureCollection",
"name": "Layer_Northern",
"crs": { "type": "name", "properties": { "name": "urn:ogc:def:crs:OGC:1.3:CRS84" } },
"xy_coordinate_resolution": 1e-15,
"features": [
{ "type": "Feature", "properties": { "fid": 1, "Layer": "Northern", "PaperSpace": null, "SubClasses": "AcDbEntity:AcDbPolyline", "Linetype": null, "EntityHandle": "79", "Text": null }, "geometry": { "type": "LineString", "coordinates": [ [ -0.134078954054576, 51.565114976279801 ], [ -0.138433560572894, 51.562393455018906 ], [ -0.138434050235469, 51.55657798019481 ], [ -0.138434801051415, 51.547659474419085 ], [ -0.142176646058424, 51.545332741935539 ], [ -0.14217723365351, 51.538351465086457 ], [ -0.135941478191926, 51.53447231209632 ], [ -0.140930613211698, 51.531369072461601 ], [ -0.136565584510006, 51.528653283601869 ], [ -0.136532214501126, 51.523629132243357 ], [ -0.134071706768971, 51.522057385933856 ], [ -0.134072000566507, 51.5185650963044 ], [ -0.134065461350553, 51.518189961072515 ], [ -0.135943091120749, 51.51701255786913 ], [ -0.12908376030361, 51.512743473486978 ], [ -0.127836408531517, 51.512743431403763 ], [ -0.127836800229273, 51.508086417391283 ], [ -0.126589649171648, 51.507310097478083 ], [ -0.124095216479711, 51.507310016205217 ], [ -0.120977012393937, 51.509250588016968 ], [ -0.115364832634618, 51.505757133504702 ], [ -0.114117616288648, 51.50575709286688 ], [ -0.113494008115663, 51.505757072547972 ], [ -0.109128979413969, 51.50303975607136 ], [ -0.111651452831874, 51.501503338709227 ], [ -0.114118105951208, 51.499934378252547 ], [ -0.101646618582647, 51.491780924372051 ], [ -0.103517541086151, 51.490616144773512 ], [ -0.104170142271767, 51.489046292370894 ], [ -0.108506765694678, 51.486344970652198 ], [ -0.109753982075338, 51.486345011307328 ], [ -0.118478684966484, 51.48634656361336 ], [ -0.128462750091982, 51.480132053472701 ] ] } },
{ "type": "Feature", "properties": { "fid": 2, "Layer": "Northern", "PaperSpace": null, "SubClasses": "AcDbEntity:AcDbPolyline", "Linetype": null, "EntityHandle": "7A", "Text": null }, "geometry": { "type": "LineString", "coordinates": [ [ -0.135947647940348, 51.46109797963134 ], [ -0.128463957926331, 51.465759935446052 ], [ -0.128463762061302, 51.468090856774197 ], [ -0.117861867874774, 51.474694141595258 ], [ -0.111001818695258, 51.478966346017557 ], [ -0.111001590186057, 51.481684955530021 ], [ -0.108507026848051, 51.48323829260584 ], [ -0.108506765694678, 51.486344970652198 ], [ -0.104170142271767, 51.489046292370894 ], [ -0.097904871508152, 51.492945613237559 ], [ -0.097904447133922, 51.497992782862191 ], [ -0.089173485234311, 51.503427283502056 ], [ -0.089173116365013, 51.507697023152865 ], [ -0.086670350982142, 51.509249086359517 ], [ -0.086628677139855, 51.511211248756837 ], [ -0.082970486908625, 51.513520207974707 ], [ -0.087301573622249, 51.516235234573905 ], [ -0.087925181812579, 51.51623525488813 ], [ -0.089172463481582, 51.515459155065088 ], [ -0.093537492304691, 51.518175730979451 ], [ -0.086677443125174, 51.522443861787195 ], [ -0.086677051395115, 51.527099792005409 ], [ -0.095407109041332, 51.532531393204223 ], [ -0.119104229224746, 51.532532160714901 ], [ -0.120352127766045, 51.531755954899303 ], [ -0.124716674994085, 51.534471858141941 ], [ -0.129705666097986, 51.531368706926891 ], [ -0.134694270328495, 51.534472267276307 ], [ -0.150294869274937, 51.544174787747338 ], [ -0.156519732368528, 51.544169737109954 ], [ -0.156519601791843, 51.545721026171563 ], [ -0.17397971708428, 51.55657913708032 ], [ -0.178344974416591, 51.556579279153965 ] ] } }
]
}
