{
"type": "FeatureCollection",
"name": "Layer_Central",
"crs": { "type": "name", "properties": { "name": "urn:ogc:def:crs:OGC:1.3:CRS84" } },
"xy_coordinate_resolution": 1e-15,
"features": [
{ "type": "Feature", "properties": { "fid": 7, "Layer": "Central", "PaperSpace": null, "SubClasses": "AcDbEntity:AcDbPolyline", "Linetype": null, "EntityHandle": "86", "Text": null }, "geometry": { "type": "LineString", "coordinates": [ [ -0.03491128720304, 51.526335563366921 ], [ -0.036164787978384, 51.527098146944887 ], [ -0.041800001274805, 51.523983699042269 ], [ -0.062384783526816, 51.523987326932861 ], [ -0.066098438132625, 51.52166715684276 ], [ -0.071710911845595, 51.521667339649063 ], [ -0.071706156733348, 51.518157373934727 ], [ -0.078571254822656, 51.513906489126889 ], [ -0.082981263388985, 51.516621474906479 ], [ -0.084807108216757, 51.51662321858452 ], [ -0.086677932787747, 51.516623279526691 ], [ -0.089173118930683, 51.515070692343514 ], [ -0.097902388050365, 51.515070976709332 ], [ -0.102891615159641, 51.518176035679978 ], [ -0.110686868553053, 51.518175899320781 ], [ -0.112557791056558, 51.517011794227543 ], [ -0.124094391563377, 51.517012560320779 ], [ -0.124718144006966, 51.517012193045119 ], [ -0.130979538141143, 51.513118687591486 ], [ -0.132201709051385, 51.513907846166788 ], [ -0.135942595884751, 51.513907968033593 ], [ -0.141555396574827, 51.517401184014489 ], [ -0.151533649649302, 51.511192174266128 ], [ -0.155898813809534, 51.51390862069109 ], [ -0.162745832808305, 51.513908843746293 ], [ -0.164629283020715, 51.51274501754699 ], [ -0.173359797685335, 51.512745301968067 ], [ -0.17523072018884, 51.511581058079493 ], [ -0.18583205942445, 51.511581403456766 ], [ -0.195186678776575, 51.505759734324705 ], [ -0.196433829834201, 51.506536080653326 ], [ -0.200175283007081, 51.508865040274593 ], [ -0.205164141833881, 51.508865206312457 ], [ -0.205164272410569, 51.507312661027655 ] ] } }
]
}
