{
"type": "FeatureCollection",
"name": "Layer_DLR",
"crs": { "type": "name", "properties": { "name": "urn:ogc:def:crs:OGC:1.3:CRS84" } },
"xy_coordinate_resolution": 1e-15,
"features": [
{ "type": "Feature", "properties": { "fid": 14, "Layer": "DLR", "PaperSpace": null, "SubClasses": "AcDbEntity:AcDbPolyline", "Linetype": null, "EntityHandle": "93", "Text": null }, "geometry": { "type": "LineString", "coordinates": [ [ -0.073582748418492, 51.509636784739975 ], [ -0.062358423522036, 51.509636419051169 ], [ -0.059863237621956, 51.511189191305164 ] ] } },
{ "type": "Feature", "properties": { "fid": 15, "Layer": "DLR", "PaperSpace": null, "SubClasses": "AcDbEntity:AcDbPolyline", "Linetype": null, "EntityHandle": "94", "Text": null }, "geometry": { "type": "LineString", "coordinates": [ [ -0.021198371154721, 51.526709683504421 ], [ -0.021197764077281, 51.52476936606049 ], [ -0.013715480721591, 51.520113341586693 ], [ -0.013716166249193, 51.511963901118008 ], [ -0.011845439610718, 51.510799515359288 ], [ -0.011845603022987, 51.508858909705751 ], [ -0.01371652533508, 51.507694564669663 ], [ -0.019328999174174, 51.507694747532064 ], [ -0.020576280734328, 51.506918503034214 ], [ -0.020576411345778, 51.505365890577337 ], [ -0.020576639802939, 51.502648692939516 ], [ -0.014340884341356, 51.498766497743652 ], [ -0.014341112850557, 51.496048906598531 ], [ -0.014341569868958, 51.490613238204254 ], [ -0.009976541045849, 51.487895018659891 ] ] } },
{ "type": "Feature", "properties": { "fid": 16, "Layer": "DLR", "PaperSpace": null, "SubClasses": "AcDbEntity:AcDbPolyline", "Linetype": null, "EntityHandle": "95", "Text": null }, "geometry": { "type": "LineString", "coordinates": [ [ -0.001867839142122, 51.50924671091142 ], [ -0.00685683524145, 51.507694341171188 ], [ -0.006856900529793, 51.506918055192727 ], [ -0.015587415194413, 51.506918339650191 ], [ -0.019328868471364, 51.509247279797258 ], [ -0.033671856848955, 51.509247747096346 ], [ -0.038660461218222, 51.512352815413465 ], [ -0.053003449595813, 51.512353282680692 ], [ -0.055497751780447, 51.513905737461776 ], [ -0.056744968161105, 51.513905778092322 ], [ -0.056745033449448, 51.513129597947099 ], [ -0.059863237621956, 51.511189191305164 ], [ -0.077947875141528, 51.511189780483228 ], [ -0.081689328418479, 51.513518502290736 ], [ -0.084183761179798, 51.513518583552518 ] ] } }
]
}
