{
"type": "FeatureCollection",
"name": "Layer_Midmay-Line",
"crs": { "type": "name", "properties": { "name": "urn:ogc:def:crs:OGC:1.3:CRS84" } },
"xy_coordinate_resolution": 1e-15,
"features": [
{ "type": "Feature", "properties": { "fid": 4, "Layer": "Midmay-Line", "PaperSpace": null, "SubClasses": "AcDbEntity:AcDbPolyline", "Linetype": "AI-Linetype-1", "EntityHandle": "7F", "Text": null }, "geometry": { "type": "LineString", "coordinates": [ [ -0.240707784744058, 51.532924051097453 ], [ -0.240707654167372, 51.534475723520998 ], [ -0.219491261954187, 51.534487845194271 ], [ -0.210150363178627, 51.54029302916944 ], [ -0.200795750661105, 51.546110281537722 ], [ -0.194519001333176, 51.546090411424309 ], [ -0.189570542081791, 51.549212309065446 ], [ -0.184556520676687, 51.549218393286708 ], [ -0.174603423207124, 51.555415973202919 ], [ -0.150906311974584, 51.555415201926195 ], [ -0.150906662439891, 51.551252339634473 ], [ -0.146577855889051, 51.548526744728278 ], [ -0.146541870746563, 51.545720701354256 ], [ -0.138441133952566, 51.540678547359171 ], [ -0.119727142936602, 51.540677945450895 ], [ -0.11473801626059, 51.543780546350341 ], [ -0.108501934357289, 51.543780343330859 ], [ -0.099770962674267, 51.549209385933914 ], [ -0.077321067822385, 51.549208655151006 ], [ -0.073579614545436, 51.546881758285295 ], [ -0.05611670054052, 51.546902484704269 ], [ -0.043022813219265, 51.54688076355766 ], [ -0.023691253116578, 51.543389748394368 ] ] } }
]
}
