{
"type": "FeatureCollection",
"name": "Layer_Windrush-Line",
"crs": { "type": "name", "properties": { "name": "urn:ogc:def:crs:OGC:1.3:CRS84" } },
"xy_coordinate_resolution": 1e-15,
"features": [
{ "type": "Feature", "properties": { "fid": 3, "Layer": "Windrush-Line", "PaperSpace": null, "SubClasses": "AcDbEntity:AcDbPolyline", "Linetype": "AI-Linetype-0", "EntityHandle": "7C", "Text": null }, "geometry": { "type": "LineString", "coordinates": [ [ -0.137200220432449, 51.470399694422632 ], [ -0.132284105799526, 51.465383634788004 ], [ -0.128464317012217, 51.461486270414547 ], [ -0.100401948447367, 51.461485355175604 ], [ -0.087305490922833, 51.469643396064704 ], [ -0.069262039360621, 51.469630015148773 ], [ -0.056748330510776, 51.473915300853591 ], [ -0.056748134645747, 51.476245805559721 ], [ -0.056746992099743, 51.489838043405776 ], [ -0.047430636431016, 51.492199643648661 ], [ -0.047392314293875, 51.496438220947653 ], [ -0.051757343116986, 51.49915593113414 ], [ -0.05175715390911, 51.50148515025203 ], [ -0.056122176075065, 51.504202555360798 ], [ -0.056140447073199, 51.508840913603166 ], [ -0.053003580172497, 51.510800856258754 ], [ -0.052379939337996, 51.511188947507343 ], [ -0.053003514884154, 51.511577076082503 ], [ -0.056121392614948, 51.513517669357434 ], [ -0.05612100088489, 51.518174512177282 ], [ -0.05799182545588, 51.518174573117385 ], [ -0.060486388793886, 51.516622426336106 ], [ -0.061110029628388, 51.51623438137603 ], [ -0.065481063704159, 51.518950413457652 ], [ -0.065498408790397, 51.520105260474331 ], [ -0.063604038015476, 51.521279053302614 ], [ -0.066721915746268, 51.523219233261607 ], [ -0.07482882222056, 51.523219497306165 ], [ -0.074826896214439, 51.546106180754137 ], [ -0.07856834949139, 51.548433117284958 ], [ -0.099771027962611, 51.548433807480585 ], [ -0.102265591300617, 51.546882692111218 ] ] } }
]
}
