{
"type": "FeatureCollection",
"name": "Layer_Bakerloo",
"crs": { "type": "name", "properties": { "name": "urn:ogc:def:crs:OGC:1.3:CRS84" } },
"xy_coordinate_resolution": 1e-15,
"features": [
{ "type": "Feature", "properties": { "fid": 6, "Layer": "Bakerloo", "PaperSpace": null, "SubClasses": "AcDbEntity:AcDbPolyline", "Linetype": null, "EntityHandle": "84", "Text": null }, "geometry": { "type": "LineString", "coordinates": [ [ -0.104140739111114, 51.497216624975721 ], [ -0.106634896510197, 51.498769505403189 ], [ -0.111604191270716, 51.498752973499514 ], [ -0.113494497778224, 51.499934357931053 ], [ -0.108525376217212, 51.503040990925498 ], [ -0.113493975471493, 51.506145227069673 ], [ -0.114117583644478, 51.50614524738841 ], [ -0.115364799990447, 51.506145288025877 ], [ -0.120976979749766, 51.509638712778134 ], [ -0.123471543018384, 51.5080862751662 ], [ -0.124095161582225, 51.508086301952062 ], [ -0.127836800229273, 51.508086417391283 ], [ -0.132825801039392, 51.508086579938634 ], [ -0.14030870739227, 51.512744137348989 ], [ -0.141555853593217, 51.511968062342667 ], [ -0.146544449636115, 51.515072948837229 ], [ -0.143426245463607, 51.517013190051308 ], [ -0.146544131382018, 51.518953547970568 ], [ -0.146543739651969, 51.523609834917607 ], [ -0.151532605035842, 51.52360999740516 ], [ -0.156521209266349, 51.526714086681842 ], [ -0.16338125825505, 51.522446356223028 ], [ -0.165875560370305, 51.523998466974071 ], [ -0.169617209408209, 51.523998588838701 ], [ -0.175244376714246, 51.520527623617006 ], [ -0.177100703349042, 51.521670768492299 ], [ -0.180218903204372, 51.519730727779489 ], [ -0.182713332945198, 51.519730810790776 ], [ -0.182713078973386, 51.522834998209156 ], [ -0.182712680061766, 51.527490892320273 ], [ -0.196431342077254, 51.536025901368191 ], [ -0.199549546249761, 51.534086470159856 ], [ -0.208903669104711, 51.534086774753938 ], [ -0.214516436615225, 51.530595590358452 ], [ -0.228235817139481, 51.530596037130699 ], [ -0.23073011898712, 51.532147870136598 ], [ -0.250061972887349, 51.532148499657843 ], [ -0.264404210448995, 51.541070512767348 ], [ -0.271263900542625, 51.541070736102071 ], [ -0.279370382642687, 51.546112839452043 ], [ -0.286230072736316, 51.546113062762011 ], [ -0.303066612482596, 51.556583338401097 ], [ -0.303065763734136, 51.566663020953975 ], [ -0.310548670288036, 51.571314672076305 ], [ -0.310548082692949, 51.578290891220774 ], [ -0.315536719706388, 51.581003738459152 ] ] } }
]
}
