{
"type": "FeatureCollection",
"name": "Layer_Metropolitan",
"crs": { "type": "name", "properties": { "name": "urn:ogc:def:crs:OGC:1.3:CRS84" } },
"xy_coordinate_resolution": 1e-15,
"features": [
{ "type": "Feature", "properties": { "fid": 13, "Layer": "Metropolitan", "PaperSpace": null, "SubClasses": "AcDbEntity:AcDbPolyline", "Linetype": null, "EntityHandle": "91", "Text": null }, "geometry": { "type": "LineString", "coordinates": [ [ -0.07734562620334, 51.513525940988877 ], [ -0.081689099909278, 51.516235051745788 ], [ -0.08917200646318, 51.520891860502047 ], [ -0.08979561465351, 51.520891880814204 ], [ -0.092290177991516, 51.519339826636994 ], [ -0.094161049700484, 51.520503995478073 ], [ -0.099773380404539, 51.520504178284398 ], [ -0.103515173765879, 51.520486819201871 ], [ -0.118480985019495, 51.529816179331092 ], [ -0.125341027347342, 51.525548739633003 ], [ -0.128458776193725, 51.527489121404393 ], [ -0.130329698645189, 51.526325254395459 ], [ -0.137812996720998, 51.526325498112264 ], [ -0.144673045709699, 51.522057731231698 ], [ -0.149038302920587, 51.522057873413154 ], [ -0.15090912743954, 51.522057934348062 ], [ -0.156521307198861, 51.525550138931116 ], [ -0.159015601473398, 51.527102147894446 ], [ -0.176475684121662, 51.538352581826771 ], [ -0.176475618833319, 51.539128332125117 ], [ -0.176424105036777, 51.539909406453745 ], [ -0.176475129170746, 51.544946037897439 ], [ -0.181441512235661, 51.548004083625578 ], [ -0.187076207252985, 51.548048855301921 ], [ -0.189570771089061, 51.5464977264987 ], [ -0.19209305375003, 51.544966081676726 ], [ -0.197677807641968, 51.544946728145966 ], [ -0.200172109826601, 51.546498071920901 ], [ -0.208279016300892, 51.546498335830456 ], [ -0.213267881823532, 51.546498498236325 ], [ -0.217009335100482, 51.548825414703053 ], [ -0.240082838142694, 51.548826165791802 ], [ -0.240082446412635, 51.55347939805916 ], [ -0.265026774025835, 51.553480209963958 ], [ -0.275627558310529, 51.560071819156448 ], [ -0.27999258713364, 51.562785733517096 ], [ -0.302441306795344, 51.576740449096697 ], [ -0.314913470601943, 51.576740854841461 ], [ -0.318031348332737, 51.57867867099322 ] ] } }
]
}
