{
"type": "FeatureCollection",
"name": "Layer_District",
"crs": { "type": "name", "properties": { "name": "urn:ogc:def:crs:OGC:1.3:CRS84" } },
"xy_coordinate_resolution": 1e-15,
"features": [
{ "type": "Feature", "properties": { "fid": 9, "Layer": "District", "PaperSpace": null, "SubClasses": "AcDbEntity:AcDbPolyline", "Linetype": null, "EntityHandle": "8A", "Text": null }, "geometry": { "type": "LineString", "coordinates": [ [ -0.168994025609443, 51.518954279239345 ], [ -0.171488588878062, 51.517402159072752 ], [ -0.170865013349249, 51.51701408013863 ], [ -0.177696411624267, 51.512739809308883 ], [ -0.181453989946524, 51.515081470940189 ], [ -0.182713731856798, 51.51507412342297 ], [ -0.183960948202766, 51.515074164052479 ], [ -0.185208229837077, 51.514298044467552 ], [ -0.187079152288541, 51.513133840295325 ], [ -0.191444638008624, 51.51041724818284 ], [ -0.191444735941136, 51.509252883877352 ], [ -0.191444768585306, 51.5088647558293 ], [ -0.195186613488233, 51.506536040016215 ], [ -0.193315880015156, 51.505371518962676 ], [ -0.193316271745214, 51.500713367245929 ], [ -0.190821969560581, 51.49916046290668 ], [ -0.190822426578981, 51.493725165564008 ], [ -0.192069708247949, 51.492948682673649 ], [ -0.192069773536328, 51.492172145070015 ], [ -0.195144452805785, 51.490206843604497 ], [ -0.19518827150638, 51.48673611603315 ] ] } },
{ "type": "Feature", "properties": { "fid": 10, "Layer": "District", "PaperSpace": null, "SubClasses": "AcDbEntity:AcDbPolyline", "Linetype": null, "EntityHandle": "8B", "Text": null }, "geometry": { "type": "LineString", "coordinates": [ [ -0.192693414370828, 51.491783891842267 ], [ -0.190198851032822, 51.493336884913909 ], [ -0.167748956180942, 51.493336153233855 ], [ -0.165254653996309, 51.491782997536198 ], [ -0.157147747522016, 51.491782733341807 ], [ -0.151535273809048, 51.491782550383157 ], [ -0.145298865464033, 51.495664933980727 ], [ -0.141557412187082, 51.493335299607132 ], [ -0.137815567180072, 51.495664690099844 ], [ -0.135321134418752, 51.495664608806209 ], [ -0.135321000548072, 51.497217553015886 ], [ -0.134697363007564, 51.497605757915728 ], [ -0.129708234534001, 51.500711295606791 ], [ -0.127837411760562, 51.500711233524449 ], [ -0.124719542824448, 51.498770091524214 ], [ -0.119730416287211, 51.501875548675578 ], [ -0.121601142873652, 51.503040162473724 ], [ -0.115364734702104, 51.506921587148625 ], [ -0.117235452285692, 51.508086075463602 ], [ -0.117235386997349, 51.50886234154185 ], [ -0.112869901155838, 51.511579026448416 ], [ -0.102892170058517, 51.511578701419822 ], [ -0.093538047255607, 51.511578396642768 ], [ -0.090420169524815, 51.509637720755627 ], [ -0.082936871240855, 51.5096374769495 ], [ -0.078571613856504, 51.509637334761656 ], [ -0.077324332239542, 51.510413533743673 ], [ -0.075453409736037, 51.511577807469735 ], [ -0.071877748874966, 51.511577690979536 ], [ -0.062458890350234, 51.517461926364511 ], [ -0.061109996984216, 51.516622446650167 ], [ -0.055497229473702, 51.520114702524509 ], [ -0.044895890238092, 51.520114357211924 ], [ -0.044895759661404, 51.52166646624115 ], [ -0.044895629084719, 51.52321852237241 ], [ -0.034917898039439, 51.523218197394492 ], [ -0.033047171400964, 51.522054099311973 ], [ -0.028058044724951, 51.525157969772863 ], [ -0.030552346909585, 51.526709988143068 ], [ -0.030552281621242, 51.527485936871706 ], [ -0.016832901433981, 51.527485490068933 ], [ -0.012467872610872, 51.524769469464111 ] ] } }
]
}
