{
"type": "FeatureCollection",
"name": "Layer_Lioness-Line",
"crs": { "type": "name", "properties": { "name": "urn:ogc:def:crs:OGC:1.3:CRS84" } },
"xy_coordinate_resolution": 1e-15,
"features": [
{ "type": "Feature", "properties": { "fid": 19, "Layer": "Lioness-Line", "PaperSpace": null, "SubClasses": "AcDbEntity:AcDbPolyline", "Linetype": "AI-Linetype-4", "EntityHandle": "9C", "Text": null }, "geometry": { "type": "LineString", "coordinates": [ [ -0.137188833597113, 51.532920676005268 ], [ -0.139059560183553, 51.534084496254366 ], [ -0.143425182838647, 51.531369067490026 ], [ -0.159638145078661, 51.541454955508847 ], [ -0.162756042781029, 51.541455057019107 ], [ -0.16400325916169, 51.541455097625075 ], [ -0.178850541552774, 51.541446582103831 ], [ -0.18645354574363, 51.536801366442845 ], [ -0.196431276788911, 51.536801691323831 ], [ -0.199549480961419, 51.534862293171308 ], [ -0.208903603816368, 51.534862597760188 ], [ -0.214516371326882, 51.531371472866468 ], [ -0.228235751851138, 51.531371919631113 ], [ -0.230730053698777, 51.532923726188798 ], [ -0.250061907599008, 51.532924355699315 ], [ -0.263780569614493, 51.54145834610253 ], [ -0.270640259708124, 51.541458569435349 ], [ -0.278746741808185, 51.546500629813437 ], [ -0.285606431901814, 51.546500853121501 ], [ -0.301819396101936, 51.556583297808643 ], [ -0.301818547353476, 51.566662980370502 ], [ -0.309925029453535, 51.571702247607213 ], [ -0.309924441858447, 51.578678407270367 ], [ -0.314289503325728, 51.58100369788847 ] ] } }
]
}
