{
"type": "FeatureCollection",
"name": "Layer_Elizabeth-Line",
"crs": { "type": "name", "properties": { "name": "urn:ogc:def:crs:OGC:1.3:CRS84" } },
"xy_coordinate_resolution": 1e-15,
"features": [
{ "type": "Feature", "properties": { "fid": 20, "Layer": "Elizabeth-Line", "PaperSpace": null, "SubClasses": "AcDbEntity:AcDbPolyline", "Linetype": "AI-Linetype-5", "EntityHandle": "9F", "Text": null }, "geometry": { "type": "LineString", "coordinates": [ [ -0.021200084772413, 51.504589585247473 ], [ -0.023070811410887, 51.505754129717779 ], [ -0.027436215669825, 51.505754271954928 ], [ -0.028683360693526, 51.506530459673513 ], [ -0.030554093346481, 51.507694725717641 ], [ -0.030534019211467, 51.510427877457403 ], [ -0.028059301554379, 51.51196398089715 ], [ -0.028058926150181, 51.514680622976243 ], [ -0.0343101654661, 51.518542426377806 ], [ -0.054873751860058, 51.518562520295227 ], [ -0.061109507321643, 51.522443029017097 ], [ -0.065474993163154, 51.519726992007584 ], [ -0.073603117851223, 51.519751802118328 ], [ -0.07857050400671, 51.522831610108554 ], [ -0.091666276003642, 51.522832036645703 ], [ -0.098526325183158, 51.518563942218961 ], [ -0.100397051821634, 51.519728129517503 ], [ -0.114740040199224, 51.519728596709065 ], [ -0.115987466364336, 51.518952168782988 ], [ -0.129083237997001, 51.518952595356453 ], [ -0.130330389054628, 51.519728716884003 ], [ -0.135941021366056, 51.516236431440063 ], [ -0.141531859362692, 51.519723459947613 ], [ -0.149023457632799, 51.515076078735085 ], [ -0.151580942750277, 51.516613415817041 ], [ -0.155269910278616, 51.514296685282652 ], [ -0.162758471043083, 51.514297227684168 ], [ -0.164629250376544, 51.513133112549177 ], [ -0.170241724089514, 51.513133295389743 ], [ -0.173983177366463, 51.515461917847993 ] ] } }
]
}
