{
"type": "FeatureCollection",
"name": "Layer_Hammersmith-and-City",
"crs": { "type": "name", "properties": { "name": "urn:ogc:def:crs:OGC:1.3:CRS84" } },
"xy_coordinate_resolution": 1e-15,
"features": [
{ "type": "Feature", "properties": { "fid": 11, "Layer": "Hammersmith-and-City", "PaperSpace": null, "SubClasses": "AcDbEntity:AcDbPolyline", "Linetype": null, "EntityHandle": "8D", "Text": null }, "geometry": { "type": "LineString", "coordinates": [ [ -0.01122065623021, 51.524769428843271 ], [ -0.016179118093591, 51.52789226896941 ], [ -0.0311758571674, 51.527873926586111 ], [ -0.031155009822695, 51.526725576911787 ], [ -0.028681652915281, 51.525157990083116 ], [ -0.033047138756792, 51.52244211500112 ], [ -0.034917865395267, 51.523606203164846 ], [ -0.045527717422022, 51.523606468447213 ], [ -0.04551946578425, 51.520502409740779 ], [ -0.05612080501986, 51.520502755050423 ], [ -0.057368086688864, 51.519726727942789 ], [ -0.061109539965814, 51.522055013335738 ], [ -0.065475025807325, 51.51933895318443 ], [ -0.073581932281614, 51.519339217251492 ], [ -0.077946961104723, 51.522055561749994 ], [ -0.083559728615238, 51.51856345470226 ], [ -0.088548323896062, 51.521667882412395 ], [ -0.089795549827921, 51.521667928403701 ], [ -0.092290112703172, 51.520115900962239 ], [ -0.094160984412149, 51.521280049861915 ], [ -0.10351510700704, 51.521280352991099 ], [ -0.118480919731154, 51.530592075100962 ], [ -0.125340968720079, 51.526324705466166 ], [ -0.128458706305983, 51.528265059694426 ], [ -0.130329635418649, 51.527101208376557 ], [ -0.13781293999672, 51.527101452089418 ], [ -0.144672980421358, 51.522833759220411 ], [ -0.147791021286279, 51.522833860776863 ], [ -0.150909062151199, 51.522833962333323 ], [ -0.156521236518741, 51.526326103358684 ], [ -0.162134003714533, 51.522834323989329 ], [ -0.164628572533531, 51.521282340001981 ], [ -0.167122874648784, 51.522834490426881 ], [ -0.172112001186022, 51.519730461676232 ], [ -0.170864850128396, 51.518954340178411 ], [ -0.172112131762705, 51.518178286707894 ], [ -0.177125619537293, 51.521261758492315 ], [ -0.182713503347604, 51.517790580030486 ], [ -0.185207805462857, 51.51934284946325 ], [ -0.189572827173798, 51.522059197533174 ], [ -0.203915815551389, 51.522059664700819 ], [ -0.205163031932048, 51.522059705324104 ], [ -0.20952851777356, 51.519343645452636 ], [ -0.212060984602733, 51.517783542933877 ], [ -0.217635848622082, 51.514299104501049 ] ] } }
]
}
