{
"type": "FeatureCollection",
"name": "Layer_Piccadilly",
"crs": { "type": "name", "properties": { "name": "urn:ogc:def:crs:OGC:1.3:CRS84" } },
"xy_coordinate_resolution": 1e-15,
"features": [
{ "type": "Feature", "properties": { "fid": 22, "Layer": "Piccadilly", "PaperSpace": null, "SubClasses": "AcDbEntity:AcDbPolyline", "Linetype": null, "EntityHandle": "A4", "Text": null }, "geometry": { "type": "LineString", "coordinates": [ [ -0.107252955191366, 51.564718422099446 ], [ -0.107253510142282, 51.558127831416634 ], [ -0.112866277652796, 51.554638491147976 ], [ -0.112866538806169, 51.551536468233245 ], [ -0.1253393554962, 51.543780891483443 ], [ -0.125340115089563, 51.534859872547486 ], [ -0.126587532157207, 51.534084005891451 ], [ -0.118481829525192, 51.529040270362962 ], [ -0.125341580744779, 51.524772757927828 ], [ -0.125341298537231, 51.523220754799674 ], [ -0.120976056446092, 51.520504479871157 ], [ -0.120976261578012, 51.518176621011726 ], [ -0.120991435035797, 51.515071728861642 ], [ -0.124094862275689, 51.513131404519363 ], [ -0.125342143909998, 51.51235525183305 ], [ -0.126589425544307, 51.511579085922627 ], [ -0.129083988787874, 51.51002701227975 ], [ -0.13344924599882, 51.510027154498914 ], [ -0.135943665351419, 51.508474819686832 ], [ -0.135943763283934, 51.507310405705873 ], [ -0.136567404118436, 51.506922281417602 ], [ -0.140309249125445, 51.504593466258072 ], [ -0.140866642255508, 51.504957254616826 ], [ -0.143441181416903, 51.506540334570147 ], [ -0.147168971863249, 51.504205522022396 ], [ -0.149663404624569, 51.504205603300797 ], [ -0.152781608797077, 51.502264816560697 ], [ -0.158394082510047, 51.502264999444876 ], [ -0.17149054003458, 51.494112792535709 ], [ -0.180221054699201, 51.494113077073102 ], [ -0.188327961173491, 51.494113341286386 ], [ -0.1920698061805, 51.491783871517136 ] ] } }
]
}
